ONEWEB-0391             
1 50471U 21132C   23064.78955380  .00000079  00000+0  16952-3 0  9997
2 50471  87.9081 244.0716 0001989  93.2538 266.8821 13.17481349 60137
ONEWEB-0392             
1 50472U 21132D   23064.89931853 -.00000003  00000+0 -40313-4 0  9997
2 50472  87.9086 244.0831 0001844  95.1827 264.9516 13.18131970 60181
ONEWEB-0393             
1 50473U 21132E   23064.90833872  .00000058  00000+0  11653-3 0  9994
2 50473  87.9080 244.0628 0001842 105.0307 255.1029 13.17989428 60170
ONEWEB-0394             
1 50474U 21132F   23065.47673676  .00000015  00000+0  50391-5 0  9999
2 50474  87.9164 213.6348 0001729  96.9316 263.2013 13.18685356 64886
ONEWEB-0395             
1 50475U 21132G   23064.78111748 -.00000176  00000+0 -53165-3 0  9990
2 50475  87.8804 259.3765 0001841  96.0642 264.0696 13.11413561 58514
ONEWEB-0396             
1 50476U 21132H   23065.47042502  .00000029  00000+0  40650-4 0  9990
2 50476  87.9105 213.6222 0001779  91.1475 268.9861 13.18684728 64922
ONEWEB-0397             
1 50477U 21132J   23064.87814724  .00000048  00000+0  90225-4 0  9991
2 50477  87.9159 213.7683 0001743  91.9606 268.1725 13.18688248 63559
ONEWEB-0398             
1 50478U 21132K   23064.82487373  .00000494  00000+0  13567-2 0  9990
2 50478  87.8811 259.3584 0002065 105.0051 255.1305 13.11419286 58415
ONEWEB-0399             
1 50479U 21132L   23064.81141167 -.00000081  00000+0 -26480-3 0  9991
2 50479  87.8807 259.3737 0001407  76.4586 283.6699 13.11420703 58401
ONEWEB-0400             
1 50480U 21132M   23064.93295596 -.00000633  00000+0 -16396-2 0  9999
2 50480  87.9238 213.7408 0001545 119.8274 240.3012 13.18687770 63557
ONEWEB-0401             
1 50481U 21132N   23064.89924583  .00000009  00000+0 -89212-5 0  9996
2 50481  87.9125 213.7399 0001559 101.6973 258.4334 13.18685834 63558
ONEWEB-0402             
1 50482U 21132P   23064.86550056 -.00000021  00000+0 -85269-4 0  9996
2 50482  87.9230 213.7552 0000945  88.1828 271.9412 13.18687195 63574
ONEWEB-0403             
1 50483U 21132Q   23064.88869210 -.00000018  00000+0 -78505-4 0  9995
2 50483  87.9211 213.7629 0001690  90.2589 269.8737 13.18687250 63539
ONEWEB-0404             
1 50484U 21132R   23064.79342361 -.00000406  00000+0 -11813-2 0  9997
2 50484  87.8803 259.3378 0002292  80.1720 279.9667 13.11409596 58498
ONEWEB-0405             
1 50485U 21132S   23065.58334491  .00000013  00000+0  00000+0 0  9996
2 50485  87.9354 213.5749 0002300 141.4284  53.0716 13.24148682 65316
ONEWEB-0406             
1 50486U 21132T   23064.89292281 -.00000012  00000+0 -63781-4 0  9991
2 50486  87.9171 213.7521 0002041  92.7570 267.3796 13.18688833 63565
ONEWEB-0407             
1 50487U 21132U   23064.88660285  .00000017  00000+0  92811-5 0  9994
2 50487  87.9140 213.8018 0001583  94.3201 265.8112 13.18687876 63508
ONEWEB-0409             
1 50488U 21132V   23064.79120649 -.00000407  00000+0 -11829-2 0  9992
2 50488  87.8812 259.3391 0002209  89.9494 270.1887 13.11415348 58387
ONEWEB-0412             
1 50489U 21132W   23064.87605318 -.00000189  00000+0 -51286-3 0  9992
2 50489  87.9233 213.7512 0001306  74.1483 285.9793 13.18686045 63596
ONEWEB-0413             
1 50490U 21132X   23064.88027313  .00000023  00000+0  24521-4 0  9996
2 50490  87.9141 213.8165 0001206  87.4015 272.7255 13.18690071 63533
ONEWEB-0414             
1 50491U 21132Y   23064.90864050  .00000020  00000+0  16125-4 0  9995
2 50491  87.9625 213.8235 0000749  96.7333 263.3889 13.26360863 63560
ONEWEB-0417             
1 50492U 21132Z   23064.87393200  .00000055  00000+0  10713-3 0  9990
2 50492  87.9232 213.7616 0001975  99.1918 260.9437 13.18688449 63549
ONEWEB-0418             
1 50493U 21132AA  23064.92480804 -.00000007  00000+0 -41878-4 0  9990
2 50493  87.9617 213.7037 0000747  79.5821 280.5403 13.32611536 63602
ONEWEB-0419             
1 50494U 21132AB  23064.90135756 -.00000034  00000+0 -11962-3 0  9992
2 50494  87.9237 213.7205 0001932 111.3969 248.7369 13.18685426 63524
ONEWEB-0420             
1 50495U 21132AC  23064.86762105 -.00000045  00000+0 -14677-3 0  9990
2 50495  87.9235 213.7404 0001350 114.2560 245.8714 13.18684359 63512
ONEWEB-0421             
1 50496U 21132AD  23064.86128542 -.00000029  00000+0 -10533-3 0  9991
2 50496  87.9231 213.7493 0001444  79.9216 280.2078 13.18682761 63551
ONEWEB-0424             
1 50497U 21132AE  23064.89712211  .00000065  00000+0  13283-3 0  9990
2 50497  87.9232 213.7491 0001876 116.4221 243.7104 13.18688162 63581
ONEWEB-0426             
1 50498U 21132AF  23064.85920272 -.00000059  00000+0 -18247-3 0  9995
2 50498  87.9229 213.7388 0001807  82.7433 277.3905 13.18684929 63520
ONEWEB-0427             
1 50499U 21132AG  23064.89500954 -.00000266  00000+0 -70656-3 0  9993
2 50499  87.9233 213.7484 0001992  99.5930 260.5427 13.18685591 63558
ONEWEB-0429             
1 50500U 21132AH  23065.10999837  .00000251  00000+0  60347-3 0  9991
2 50500  87.9210 213.7029 0001521 103.0762 257.0540 13.18686478 64848
ONEWEB-0430             
1 50501U 21132AJ  23064.87183562 -.00000017  00000+0 -76977-4 0  9994
2 50501  87.9182 213.7840 0001673 112.3135 247.8174 13.18686109 63562
ONEWEB-0432             
1 50502U 21132AK  23064.90382477  .00000068  00000+0  13817-3 0  9992
2 50502  87.9232 213.7477 0001233  98.9667 261.1605 13.19013881 63522
ONEWEB-0440             
1 50503U 21132AL  23064.89081821  .00000043  00000+0  75108-4 0  9995
2 50503  87.9237 213.7573 0001241  73.1903 286.9366 13.18687455 63513
ONEWEB-0450             
1 50504U 21132AM  23064.88448759 -.00000013  00000+0 -66399-4 0  9993
2 50504  87.9238 213.7635 0001136 112.6470 247.4783 13.18688644 63544
TJS-9                   
1 50574U 21135A   23064.88788888 -.00000303  00000+0  00000+0 0  9996
2 50574   0.0765 289.8150 0004904 100.9927 229.3380  1.00267958  4413
STARLINK-3321           
1 50803U 22001A   23064.73849824  .00013815  00000+0  88436-3 0  9990
2 50803  53.2154  66.9943 0001409  86.3075 273.8078 15.08840844 64353
STARLINK-3323           
1 50804U 22001B   23065.43493602  .00031026  00000+0  19572-2 0  9996
2 50804  53.2151  53.8647 0001635  97.1907 262.9271 15.08872442 65840
STARLINK-3333           
1 50805U 22001C   23065.43125010  .00028324  00000+0  17888-2 0  9997
2 50805  53.2167  53.8781 0001178 101.7726 258.3398 15.08876088 65861
STARLINK-3335           
1 50806U 22001D   23065.22885729  .00017762  00000+0  11307-2 0  9999
2 50806  53.2167  54.7927 0001209  92.2486 267.8645 15.08858401 65832
STARLINK-3353           
1 50807U 22001E   23065.34661176  .00019889  00000+0  12631-2 0  9994
2 50807  53.2164  54.2590 0001435  80.4726 279.6429 15.08871268 65857
STARLINK-3355           
1 50808U 22001F   23065.35397425  .00011990  00000+0  76947-3 0  9995
2 50808  53.2160  54.2350 0001086  81.1467 278.9648 15.08870629 65833
STARLINK-3232           
1 50809U 22001G   23064.69525978  .00013751  00000+0  88035-3 0  9996
2 50809  53.2151  57.1923 0001129  78.3632 281.7487 15.08841462 64488
STARLINK-3348           
1 50810U 22001H   23064.68790116  .00008920  00000+0  57788-3 0  9998
2 50810  53.2163  57.2173 0001450  90.3812 269.7346 15.08835866 64483
STARLINK-3347           
1 50811U 22001J   23065.34293670  .00017583  00000+0  11195-2 0  9992
2 50811  53.2158  54.2767 0001138  95.5668 264.5454 15.08859408 65867
STARLINK-3338           
1 50812U 22001K   23065.43956158  .00009516  00000+0  61468-3 0  9996
2 50812  53.2188  53.8401 0001480 105.8030 254.3126 15.08868503 65846
STARLINK-3349           
1 50813U 22001L   23065.20308848  .00030791  00000+0  19429-2 0  9997
2 50813  53.2151  54.8560 0001599 109.6854 250.4311 15.08865890 65817
STARLINK-3324           
1 50814U 22001M   23065.31993747  .00016561  00000+0  10557-2 0  9990
2 50814  53.2148  64.3805 0001662  98.2820 261.8361 15.08856577 65711
STARLINK-3234           
1 50815U 22001N   23065.19849863  .00020617  00000+0  13091-2 0  9999
2 50815  53.2139  64.9297 0001454  69.7328 290.3820 15.08856427 65696
STARLINK-3342           
1 50816U 22001P   23065.23529670  .00007954  00000+0  51721-3 0  9998
2 50816  53.2165  64.7637 0001531 110.3719 249.7438 15.08846068 65700
STARLINK-3341           
1 50817U 22001Q   23065.19481609  .00019441  00000+0  12356-2 0  9997
2 50817  53.2145  64.9418 0001566  96.6547 263.4624 15.08857296 65672
STARLINK-3336           
1 50818U 22001R   23065.24265988  .00013719  00000+0  87795-3 0  9996
2 50818  53.2193  64.7254 0001675  81.4864 278.6318 15.08857392 65706
STARLINK-3327           
1 50819U 22001S   23065.25001814  .00013939  00000+0  89185-3 0  9993
2 50819  53.2139  64.6984 0001379  83.8981 276.2168 15.08852939 65634
STARLINK-3339           
1 50820U 22001T   23065.23161531  .00008015  00000+0  52102-3 0  9994
2 50820  53.2151  64.7743 0001311  93.7840 266.3302 15.08844296 65709
STARLINK-3346           
1 50821U 22001U   23065.21689782  .00016109  00000+0  10274-2 0  9992
2 50821  53.2183  64.8415 0001564  95.8681 264.2490 15.08858433 65677
STARLINK-3343           
1 50822U 22001V   23064.69433896  .00015910  00000+0  10156-2 0  9995
2 50822  53.2157  67.1846 0001234  65.7478 294.3643 15.08834472 64341
STARLINK-3334           
1 50823U 22001W   23065.19113336  .00002014  00000+0  14457-3 0  9996
2 50823  53.2157  64.9610 0001383  89.9065 270.2086 15.08845695 65705
STARLINK-3340           
1 50824U 22001X   23065.22057651  .00017031  00000+0  10850-2 0  9995
2 50824  53.2147  64.8287 0001447 101.5694 258.5461 15.08859317 65694
STARLINK-3332           
1 50825U 22001Y   23064.69801448  .00007913  00000+0  51461-3 0  9999
2 50825  53.2156  67.1691 0001702 105.8908 254.2272 15.08844843 64341
STARLINK-3337           
1 50826U 22001Z   23064.74218081  .00019666  00000+0  12501-2 0  9990
2 50826  53.2170  66.9741 0001837  93.8146 266.3056 15.08844029 64351
